{
    "links": {
        "self": "http://www.neowsapp.com/rest/v1/neo/3721218?api_key=iIulBulltgU6a56xZRHN4H3l9WmuAYTsLGpBGhQ2"
    },
    "id": "3721218",
    "neo_reference_id": "3721218",
    "name": "(2015 LH24)",
    "designation": "2015 LH24",
    "nasa_jpl_url": "http://ssd.jpl.nasa.gov/sbdb.cgi?sstr=3721218",
    "absolute_magnitude_h": 22.7,
    "estimated_diameter": {
        "kilometers": {
            "estimated_diameter_min": 0.0766575574,
            "estimated_diameter_max": 0.1714115092
        },
        "meters": {
            "estimated_diameter_min": 76.6575573531,
            "estimated_diameter_max": 171.4115092306
        },
        "miles": {
            "estimated_diameter_min": 0.0476327831,
            "estimated_diameter_max": 0.1065101409
        },
        "feet": {
            "estimated_diameter_min": 251.5011804664,
            "estimated_diameter_max": 562.3737359442
        }
    },
    "is_potentially_hazardous_asteroid": false,
    "close_approach_data": [
        {
            "close_approach_date": "2015-07-17",
            "close_approach_date_full": "2015-Jul-17 04:52",
            "epoch_date_close_approach": 1437108720000,
            "relative_velocity": {
                "kilometers_per_second": "6.9207142405",
                "kilometers_per_hour": "24914.5712658583",
                "miles_per_hour": "15480.9456846107"
            },
            "miss_distance": {
                "astronomical": "0.2223946538",
                "lunar": "86.5115203282",
                "kilometers": "33269766.507867406",
                "miles": "20672874.2940699628"
            },
            "orbiting_body": "Earth"
        },
        {
            "close_approach_date": "2043-07-15",
            "close_approach_date_full": "2043-Jul-15 15:50",
            "epoch_date_close_approach": 2320588200000,
            "relative_velocity": {
                "kilometers_per_second": "5.5563661268",
                "kilometers_per_hour": "20002.9180563695",
                "miles_per_hour": "12429.0353889702"
            },
            "miss_distance": {
                "astronomical": "0.1952477977",
                "lunar": "75.9513933053",
                "kilometers": "29208654.658110899",
                "miles": "18149416.4049284462"
            },
            "orbiting_body": "Earth"
        }
    ],
    "orbital_data": {
        "orbit_id": "8",
        "orbit_determination_date": "2017-04-06 08:33:08",
        "first_observation_date": "2015-06-12",
        "last_observation_date": "2015-07-14",
        "data_arc_in_days": 32,
        "observations_used": 36,
        "orbit_uncertainty": "7",
        "minimum_orbit_intersection": ".187699",
        "jupiter_tisserand_invariant": "3.578",
        "epoch_osculation": "2459000.5",
        "eccentricity": ".4420592896699531",
        "semi_major_axis": "2.129304576857854",
        "inclination": "8.81322181844053",
        "ascending_node_longitude": "135.3765545697873",
        "orbital_period": "1134.893499021251",
        "perihelion_distance": "1.188025708121091",
        "perihelion_argument": "148.6410197896551",
        "aphelion_distance": "3.070583445594617",
        "perihelion_time": "2459485.857206346320",
        "mean_anomaly": "206.0396553197601",
        "mean_motion": ".3172103816882108",
        "equinox": "J2000",
        "orbit_class": {
            "orbit_class_type": "AMO",
            "orbit_class_description": "Near-Earth asteroid orbits similar to that of 1221 Amor",
            "orbit_class_range": "1.017 AU < q (perihelion) < 1.3 AU"
        }
    },
    "is_sentry_object": false
}